{
  "norad_id": 68366,
  "name": "RASSVET-3 OBJECT G",
  "history": [
    {
      "epoch": "2026-03-31T15:46:19.613280Z",
      "apogee_km": 324.17134767259085,
      "perigee_km": 288.17633379523977,
      "latitude_deg": 5.416992534203595e-05,
      "longitude_deg": 34.09807923833533,
      "height_km": 296.49449718083895,
      "semi_major_axis_km": 6684.310840733915,
      "eccentricity": 0.0026925,
      "inclination_deg": 82.297,
      "raan_deg": 99.7112,
      "arg_perigee_deg": 44.6743,
      "mean_anomaly_deg": 315.6691,
      "mean_motion_rev_day": 15.88611878
    }
  ]
}